OBJECT_NAME,OBJECT_ID,EPOCH,MEAN_MOTION,ECCENTRICITY,INCLINATION,RA_OF_ASC_NODE,ARG_OF_PERICENTER,MEAN_ANOMALY,EPHEMERIS_TYPE,CLASSIFICATION_TYPE,NORAD_CAT_ID,ELEMENT_SET_NO,REV_AT_EPOCH,BSTAR,MEAN_MOTION_DOT,MEAN_MOTION_DDOT
LINGQIAO VIDEO A,2015-057B,2026-06-09T05:37:11.980416,14.77383620,.0015461,97.6623,155.4287,298.9615,61.0046,0,U,40959,999,57423,.14214E-3,.964E-5,0
LINGQIAO VIDEO B,2015-057C,2026-06-09T05:04:26.095296,14.77488218,.0015588,97.6590,156.5727,299.0182,60.9467,0,U,40960,999,57427,.85728E-4,.564E-5,0
JILIN-1,2015-057D,2026-06-09T03:51:34.610400,14.78147131,.0015432,97.6506,159.9262,291.8780,68.0790,0,U,40961,999,57442,.11514E-3,.786E-5,0
FOX-1A (AO-85),2015-058D,2026-06-08T18:24:19.848096,14.90929725,.012997,64.7758,305.1507,59.8929,301.4993,0,U,40967,999,11231,.27655E-3,.3039E-4,0
SINOD-D 1,2015-058E,2026-06-09T01:20:18.553920,14.95852379,.0118585,64.7760,284.3760,56.3257,304.9098,0,U,40968,999,11544,.24048E-3,.2922E-4,0
ELEKTRO-L 2,2015-074A,2026-06-08T23:34:46.583040,1.00271818,.000097,6.6726,70.6232,284.4222,241.5278,0,U,41105,999,3842,0,-.102E-5,0
DAMPE,2015-078A,2026-06-09T04:38:34.600128,15.30765886,.0013732,97.4563,165.6215,101.6870,258.5913,0,U,41173,999,58332,.54305E-4,.154E-4,0
ORBCOMM FM114,2015-081A,2026-06-08T23:10:23.949408,14.58849213,.0001959,47.0058,40.8748,173.2997,186.7915,0,U,41179,999,55655,.13581E-3,.471E-5,0
ORBCOMM FM110,2015-081D,2026-06-08T09:44:53.179584,14.58866539,.00028523,47.0028,42.9609,26.3800,333.7231,0,U,41182,999,55634,.1935072E-3,.743E-5,0
ORBCOMM FM112,2015-081F,2026-06-09T03:07:11.350272,14.58892085,.0003239,47.0001,308.3469,182.2677,177.8194,0,U,41184,999,55777,.15653E-3,.569E-5,0
ORBCOMM FM113,2015-081G,2026-06-09T02:33:10.374048,14.58849888,.000181,47.0018,308.8310,192.4742,167.6099,0,U,41185,999,55775,.11906E-3,.392E-5,0
ORBCOMM FM108,2015-081J,2026-06-08T22:21:52.417152,14.58862719,.0002532,47.0040,221.2288,186.7177,173.3675,0,U,41187,999,55887,.14433E-3,.511E-5,0
ORBCOMM FM117,2015-081K,2026-06-07T20:52:51.913056,14.58857943,.00029806,47.0005,224.8856,184.7848,175.3010,0,U,41188,999,55876,.16110195E-3,.59E-5,0
ORBCOMM FM116,2015-081L,2026-06-07T17:07:36.101856,14.58869594,.00011218,47.0035,315.4145,3.5235,356.5659,0,U,41189,999,55755,.21737163E-3,.857E-5,0
HORYU-4,2016-012D,2026-06-07T15:50:33.220608,15.89027763,.00028324,30.9848,148.6331,206.9121,153.1392,0,U,41340,999,56929,.1021123E-2,.317249E-2,0
ZIYUAN 3-02 (ZY 3-02),2016-033A,2026-06-09T05:33:33.545664,15.21403764,.0011566,97.3835,236.1580,321.5073,38.5336,0,U,41556,999,55677,.20628E-3,.4567E-4,0
CARTOSAT-2C,2016-040A,2026-06-09T03:45:55.332288,15.19255224,.0009921,97.4489,220.2447,156.4346,203.7345,0,U,41599,999,55249,.19543E-3,.4056E-4,0
LAPAN-A3,2016-040E,2026-06-09T05:28:32.376000,15.33053526,.0011722,97.1487,156.6357,51.5802,308.6491,0,U,41603,999,55359,.96135E-4,.3E-4,0
GAOFEN-3,2016-049A,2026-06-09T04:11:49.550784,14.42214106,.0001238,98.4016,168.0820,99.9743,260.1586,0,U,41727,999,51749,-.99061E-5,-.76E-6,0
CAS-2T & KS-1Q,2016-066G,2026-06-09T04:56:58.962336,14.44667476,.0342497,98.3822,236.0336,153.6291,208.2796,0,U,41847,999,50364,.22785E-3,.1572E-4,0
YUNHAI-1 01,2016-068A,2026-06-09T04:54:57.787200,14.32700289,.0006452,98.5835,171.2863,62.5254,297.6585,0,U,41857,999,50068,.15566E-3,.38E-5,0
RESOURCESAT-2A,2016-074A,2026-06-09T04:30:42.620256,14.21614438,.0003344,98.7521,233.7574,98.7034,261.4522,0,U,41877,999,49316,.15365E-3,.293E-5,0
TANSAT,2016-081A,2026-06-09T05:30:55.647072,14.59944359,.0020127,98.5368,160.2526,337.7186,22.3137,0,U,41898,999,50346,.68796E-4,.28E-5,0
JILIN-1 03,2017-002B,2026-06-09T04:06:23.700096,15.41380490,.0005744,97.1952,167.3697,179.7077,180.4175,0,U,41914,999,52062,.28818E-3,.11961E-3,0
CARTOSAT-2D,2017-008A,2026-06-09T04:32:18.607200,15.19272439,.0003611,97.4107,219.6442,267.4204,92.6618,0,U,41948,999,51636,.20257E-3,.4205E-4,0
